[{"OBJECT_NAME":"ARIRANG-2 (KOMPSAT-2)","OBJECT_ID":"2006-031A","EPOCH":"2026-03-09T23:26:11.281344","MEAN_MOTION":14.64589494,"ECCENTRICITY":0.00152528,"INCLINATION":97.8302,"RA_OF_ASC_NODE":258.2159,"ARG_OF_PERICENTER":32.9467,"MEAN_ANOMALY":122.2845,"EPHEMERIS_TYPE":0,"CLASSIFICATION_TYPE":"U","NORAD_CAT_ID":29268,"ELEMENT_SET_NO":999,"REV_AT_EPOCH":4695,"BSTAR":0.00012039561,"MEAN_MOTION_DOT":5.95e-6,"MEAN_MOTION_DDOT":0},{"OBJECT_NAME":"SL-16 DEB","OBJECT_ID":"1992-093BH","EPOCH":"2026-03-09T12:57:57.426336","MEAN_MOTION":14.50451779,"ECCENTRICITY":0.01105416,"INCLINATION":71.2416,"RA_OF_ASC_NODE":100.1285,"ARG_OF_PERICENTER":62.0314,"MEAN_ANOMALY":57.8344,"EPHEMERIS_TYPE":0,"CLASSIFICATION_TYPE":"U","NORAD_CAT_ID":22368,"ELEMENT_SET_NO":999,"REV_AT_EPOCH":72766,"BSTAR":0.00014687998,"MEAN_MOTION_DOT":5.65e-6,"MEAN_MOTION_DDOT":0}]
